      2.10          N: GNSS NAV DATA                        RINEX VERSION / TYPE
fic2rin                                 08/07/2018 00:19:14 PGM / RUN BY / DATE
                                                            END OF HEADER
10 18  8  6 16  0  0.0 1.875483430922e-04-1.023181539495e-12 0.000000000000e+00
    8.600000000000e+01-2.812500000000e-01 4.674123267424e-09-8.841245446389e-01
   -1.713633537292e-07 3.673478728160e-03 7.495284080505e-06 5.153660997391e+03
    1.440000000000e+05 7.078051567078e-08-2.960927292998e+00-2.980232238770e-08
    9.617615822360e-01 2.386875000000e+02-2.771321004278e+00-8.073550581502e-09
    1.671498196038e-10 1.000000000000e+00 2.013000000000e+03 0.000000000000e+00
    2.400000000000e+00 0.000000000000e+00 1.862645149231e-09 8.600000000000e+01
    1.368060000000e+05 4.000000000000e+00
 9 18  8  6 16  0  0.0 5.118721164763e-04-1.136868377216e-12 0.000000000000e+00
    8.700000000000e+01-7.062500000000e+00 4.775198906202e-09-2.657288301352e+00
   -3.799796104431e-07 9.177856845781e-04 8.312985301018e-06 5.153565404892e+03
    1.440000000000e+05 4.470348358154e-08-1.924125384940e+00-2.235174179077e-08
    9.523455890164e-01 2.171250000000e+02 1.814971578177e+00-8.046406593704e-09
   -4.093027633887e-10 1.000000000000e+00 2.013000000000e+03 0.000000000000e+00
    3.400000000000e+00 0.000000000000e+00 9.313225746155e-10 8.700000000000e+01
    1.368060000000e+05 4.000000000000e+00
29 18  8  6 16  0  0.0 4.009995609522e-04-7.162270776462e-12 0.000000000000e+00
    6.300000000000e+01-8.021875000000e+01 4.234462096629e-09-2.247249882178e+00
   -4.092231392860e-06 8.382307132706e-04 5.073845386505e-06 5.153655397415e+03
    1.440000000000e+05 4.284083843231e-08 1.291818187013e+00 3.725290298462e-09
    9.841658361489e-01 2.958750000000e+02 1.468121084930e+00-8.065335953616e-09
   -9.536111503035e-11 1.000000000000e+00 2.013000000000e+03 0.000000000000e+00
    2.400000000000e+00 0.000000000000e+00-1.024454832077e-08 6.300000000000e+01
    1.368060000000e+05 4.000000000000e+00
27 18  8  6 16  0  0.0 3.559701144695e-04-2.842170943040e-12 0.000000000000e+00
    8.400000000000e+01-6.412500000000e+01 4.261963242162e-09-2.951446574431e+00
   -3.416091203690e-06 6.007798714563e-03 5.023553967476e-06 5.153693933487e+03
    1.440000000000e+05-1.266598701477e-07 1.226628987689e+00-1.173466444016e-07
    9.775494482755e-01 2.931250000000e+02 4.555590799100e-01-8.021048394576e-09
   -1.135761594744e-10 1.000000000000e+00 2.013000000000e+03 0.000000000000e+00
    2.400000000000e+00 0.000000000000e+00 1.862645149231e-09 8.400000000000e+01
    1.368060000000e+05 4.000000000000e+00
 5 18  8  6 15 59 44.0-3.550201654434e-06 4.547473508865e-13 0.000000000000e+00
    2.600000000000e+01-4.437500000000e+00 5.013423114910e-09-2.156781119048e+00
   -2.179294824600e-07 5.540915648453e-03 7.212162017822e-06 5.153751602173e+03
    1.439840000000e+05 2.980232238770e-08-2.980311447626e+00-5.215406417847e-08
    9.485765736904e-01 2.342500000000e+02 6.468476000732e-01-8.158554122241e-09
    2.714398779890e-10 1.000000000000e+00 2.013000000000e+03 0.000000000000e+00
    2.400000000000e+00 0.000000000000e+00-1.117587089539e-08 2.600000000000e+01
    1.392060000000e+05 4.000000000000e+00
10 18  8  6 15 59 44.0 1.875488087535e-04-1.023181539495e-12 0.000000000000e+00
    1.500000000000e+01-2.812500000000e-01 4.674123267424e-09-8.864582530015e-01
   -1.713633537292e-07 3.673488856293e-03 7.495284080505e-06 5.153660993576e+03
    1.439840000000e+05 7.078051567078e-08-2.960927143780e+00-3.166496753693e-08
    9.617615895506e-01 2.386875000000e+02-2.771320995500e+00-8.073550581502e-09
    1.667926618696e-10 1.000000000000e+00 2.013000000000e+03 0.000000000000e+00
    2.400000000000e+00 0.000000000000e+00 1.862645149231e-09 1.500000000000e+01
    1.406160000000e+05 4.000000000000e+00
 5 18  8  6 17 59 44.0-3.546476364136e-06 4.547473508865e-13 0.000000000000e+00
    2.700000000000e+01 3.125000000000e-02 5.087711923623e-09-1.106779570337e+00
    3.725290298462e-09 5.541038583033e-03 7.042661309242e-06 5.153750164032e+03
    1.511840000000e+05 1.471489667892e-07-2.980369879500e+00 2.421438694000e-08
    9.485780278309e-01 2.374687500000e+02 6.469833252239e-01-8.244271978448e-09
    1.903650723265e-10 1.000000000000e+00 2.013000000000e+03 0.000000000000e+00
    2.400000000000e+00 0.000000000000e+00-1.117587089539e-08 2.700000000000e+01
    1.440060000000e+05 4.000000000000e+00
10 18  8  6 17 59 44.0 1.875413581729e-04-1.023181539495e-12 0.000000000000e+00
    1.600000000000e+01-1.062500000000e+00 4.806271629077e-09 1.637217483080e-01
   -1.769512891769e-07 3.673244500533e-03 7.266178727150e-06 5.153660533905e+03
    1.511840000000e+05-3.725290298462e-09-2.960985574191e+00 2.607703208923e-08
    9.617623561197e-01 2.369687500000e+02-2.771310681928e+00-8.156054018102e-09
    1.528635102359e-10 1.000000000000e+00 2.013000000000e+03 0.000000000000e+00
    2.400000000000e+00 0.000000000000e+00 1.862645149231e-09 1.600000000000e+01
    1.440060000000e+05 4.000000000000e+00
 1 18  8  6 18  0  0.0-7.358612492681e-05-4.092726157978e-12 0.000000000000e+00
    9.400000000000e+01-6.028125000000e+01 4.183388540639e-09 2.196480129471e+00
   -3.160908818245e-06 8.068387745880e-03 1.003965735435e-05 5.153673780441e+03
    1.512000000000e+05-1.937150955200e-07 2.283126375435e+00-1.341104507446e-07
    9.721734349944e-01 1.934687500000e+02 6.752561949709e-01-7.768895034233e-09
    2.278666344171e-10 1.000000000000e+00 2.013000000000e+03 0.000000000000e+00
    3.400000000000e+00 0.000000000000e+00 5.587935447693e-09 9.400000000000e+01
    1.440060000000e+05 4.000000000000e+00
 3 18  8  6 18  0  0.0 1.174286007881e-04 6.025402399246e-12 0.000000000000e+00
    2.300000000000e+01 6.531250000000e+00 4.815200572432e-09 1.237406727963e+00
    3.892928361893e-07 1.612744876184e-03 7.301568984985e-06 5.153702228546e+03
    1.512000000000e+05 5.215406417847e-08-2.957575133253e+00 8.940696716309e-08
    9.616825641789e-01 2.378750000000e+02 5.339710793416e-01-8.191769791521e-09
    1.971510692762e-10 1.000000000000e+00 2.013000000000e+03 0.000000000000e+00
    2.400000000000e+00 0.000000000000e+00 1.862645149231e-09 2.300000000000e+01
    1.440060000000e+05 4.000000000000e+00
 2 18  8  6 18  0  0.0 3.590155392885e-05-1.125499693444e-11 0.000000000000e+00
    5.600000000000e+01-7.218750000000e+01 4.553761111000e-09 2.513162625985e+00
   -3.756955265999e-06 1.795496209525e-02 1.032650470734e-05 5.153793127060e+03
    1.512000000000e+05 1.117587089539e-07 2.220520051607e+00-1.825392246246e-07
    9.512142720411e-01 1.690312500000e+02-1.840623587761e+00-7.714964216370e-09
    1.603638226540e-10 1.000000000000e+00 2.013000000000e+03 0.000000000000e+00
    2.400000000000e+00 0.000000000000e+00-2.048909664154e-08 5.600000000000e+01
    1.440060000000e+05 4.000000000000e+00
11 18  8  6 18  0  0.0-7.262686267495e-04 2.160049916711e-12 0.000000000000e+00
    3.000000000000e+00-8.840625000000e+01 5.680593762389e-09 1.545028875420e+00
   -4.870817065239e-06 1.703551597893e-02 7.223337888718e-06 5.153655008316e+03
    1.512000000000e+05 2.477318048477e-07 1.851391593777e+00-3.688037395477e-07
    9.060499722981e-01 2.115312500000e+02 1.793337028371e+00-8.565713939225e-09
    4.535903224290e-11 1.000000000000e+00 2.013000000000e+03 0.000000000000e+00
    2.400000000000e+00 0.000000000000e+00-1.210719347000e-08 3.000000000000e+00
    1.440060000000e+05 4.000000000000e+00
14 18  8  6 18  0  0.0-9.764684364200e-05 0.000000000000e+00 0.000000000000e+00
    3.000000000000e+01-1.603125000000e+01 4.528402911872e-09-2.199717229246e+00
   -7.860362529755e-07 1.007373991888e-02 8.400529623032e-06 5.153607963562e+03
    1.512000000000e+05 1.154839992523e-07-1.833754881628e+00-1.545995473862e-07
    9.605440598871e-01 2.192187500000e+02-1.944866813018e+00-7.809968173666e-09
   -4.271606500985e-10 1.000000000000e+00 2.013000000000e+03 0.000000000000e+00
    2.400000000000e+00 0.000000000000e+00-9.778887033463e-09 3.000000000000e+01
    1.440060000000e+05 4.000000000000e+00
 7 18  8  6 18  0  0.0 1.462539657950e-04-6.480149750132e-12 0.000000000000e+00
    2.700000000000e+01 6.953125000000e+01 4.324823003380e-09 1.541732542092e+00
    3.723427653313e-06 1.200760435313e-02 1.020729541779e-05 5.153655433655e+03
    1.512000000000e+05-2.030283212662e-07-8.464420409771e-01 6.705522537231e-08
    9.578728475461e-01 1.839062500000e+02-2.506014076791e+00-8.007119242942e-09
   -2.485817830005e-10 1.000000000000e+00 2.013000000000e+03 0.000000000000e+00
    2.400000000000e+00 0.000000000000e+00-1.117587089539e-08 2.700000000000e+01
    1.440060000000e+05 4.000000000000e+00
 6 18  8  6 18  0  0.0 3.792433999479e-04-4.206412995700e-12 0.000000000000e+00
    2.900000000000e+01-5.271875000000e+01 4.234462096629e-09 2.380464492770e+00
   -2.574175596237e-06 1.002414035611e-03 1.046247780323e-05 5.153679679871e+03
    1.512000000000e+05 1.117587089539e-08 2.274804576181e+00-1.862645149231e-08
    9.718714784624e-01 1.812500000000e+02-1.046729393029e+00-7.843183842946e-09
    2.042942239602e-10 1.000000000000e+00 2.013000000000e+03 0.000000000000e+00
    2.400000000000e+00 0.000000000000e+00 4.656612873077e-09 2.900000000000e+01
    1.440060000000e+05 4.000000000000e+00
 8 18  8  6 18  0  0.0-1.107389107347e-04-1.250555214938e-12 0.000000000000e+00
    9.300000000000e+01-6.575000000000e+01 4.489472718845e-09-1.557565084186e+00
   -3.641471266747e-06 3.464945708402e-03 4.770234227180e-06 5.153608882904e+03
    1.512000000000e+05-3.539025783539e-08 1.217543455961e+00-1.061707735062e-07
    9.693428011557e-01 2.948125000000e+02-4.021058658490e-01-8.255701025942e-09
   -2.750114553310e-11 1.000000000000e+00 2.013000000000e+03 0.000000000000e+00
    2.400000000000e+00 0.000000000000e+00 5.122274160385e-09 9.300000000000e+01
    1.440060000000e+05 4.000000000000e+00
